0 FENGYUN 1C DEB
1 37080U 99025EFQ 13291.43248200  .00002939  00000-0  20189-2 0  1067
2 37080 098.1709 002.9460 0187848 088.9119 275.7193 13.91923191256597
0 FENGYUN 1C DEB
1 37080U 99025EFQ 13295.45741897  .00003238  00000-0  22191-2 0  1072
2 37080 098.1709 006.4975 0188359 077.7906 284.4908 13.91952683257157
